STARLINK-2726           
1 48662U 21044AA  26068.51833598  .00000949  00000+0  82585-4 0  9994
2 48662  53.0553 112.3890 0001506  91.3346 268.7816 15.06411714263820
2024-205L               
1 61904U 24205L   26066.14074752  .00013606  00000+0  79283-3 0  9990
2 61904  97.4213 140.2188 0054772 346.2042  13.7688 15.10822925 72825
